ONEWEB-0297             
1 49086U 21075M   25276.26906563  .00000425  00000+0  11448-2 0  9991
2 49086  87.8930  41.7336 0001789  96.3997 263.7335 13.12441537201481
ONEWEB-0298             
1 49087U 21075N   25276.30004917  .00000060  00000+0  12065-3 0  9991
2 49087  87.9080  56.9614 0001686  93.4295 266.7029 13.17648928199792
ONEWEB-0299             
1 49088U 21075P   25276.30158624  .00000088  00000+0  19363-3 0  9995
2 49088  87.9083  56.9184 0001841  92.3092 267.8250 13.17652627199771
ONEWEB-0300             
1 49089U 21075Q   25275.87976814  .00000465  00000+0  12583-2 0  9991
2 49089  87.8937  41.7654 0001486  92.2981 267.8317 13.12440775201451
ONEWEB-0301             
1 49090U 21075R   25276.32096923 -.00000001  00000+0 -37133-4 0  9996
2 49090  87.8932  41.6815 0001341  92.0207 268.1075 13.12444264200872
ONEWEB-0302             
1 49091U 21075S   25276.30798900 -.00000341  00000+0 -98351-3 0  9994
2 49091  87.8937  41.6911 0002017 104.4659 255.6693 13.12442821200857
ONEWEB-0304             
1 49092U 21075T   25276.20035299 -.00000215  00000+0 -58608-3 0  9990
2 49092  87.9082  56.9693 0001771  98.2846 261.8486 13.17649932199730
ONEWEB-0305             
1 49093U 21075U   25275.88986380 -.00000047  00000+0 -15542-3 0  9993
2 49093  87.9083  57.0080 0002079  88.9958 271.1412 13.17648632199724
ONEWEB-0308             
1 49094U 21075V   25276.30150251 -.00000322  00000+0 -93179-3 0  9990
2 49094  87.8940  41.6841 0001718  99.5847 260.5476 13.12443331200868
ONEWEB-0309             
1 49095U 21075W   25275.89321539  .00000025  00000+0  32247-4 0  9991
2 49095  87.9080  57.0240 0002019 105.0921 255.0434 13.17650619199695
ONEWEB-0310             
1 49096U 21075X   25276.31610314 -.00000149  00000+0 -44973-3 0  9999
2 49096  87.8929  41.7244 0001833 101.1844 258.9491 13.12443604201491
ONEWEB-0311             
1 49097U 21075Y   25276.20371496 -.00000035  00000+0 -12425-3 0  9994
2 49097  87.9078  56.9593 0001952  86.7514 273.3841 13.17646598199787
ONEWEB-0312             
1 49098U 21075Z   25276.29483028  .00000078  00000+0  16774-3 0  9995
2 49098  87.9073  56.9719 0002085  95.0143 265.1227 13.17650841199774
ONEWEB-0313             
1 49099U 21075AA  25276.29975278 -.00000309  00000+0 -82949-3 0  9995
2 49099  87.9068  56.9812 0001824  94.2972 265.8368 13.17649464199765
ONEWEB-0314             
1 49100U 21075AB  25275.96240633  .00000000  00000+0 -34136-4 0  9994
2 49100  87.9086  56.9905 0002161  93.5321 266.6058 13.17651928199691
ONEWEB-0315             
1 49101U 21075AC  25276.29014971 -.00000204  00000+0 -60214-3 0  9998
2 49101  87.8936  41.6755 0001810  86.2023 273.9313 13.12441188201472
ONEWEB-0316             
1 49102U 21075AD  25276.24102554  .00000090  00000+0  19667-3 0  9996
2 49102  87.9218  26.4911 0001800  96.2327 263.9011 13.18687680203346
