[{"OBJECT_NAME":"ONEWEB-0297","OBJECT_ID":"2021-075M","EPOCH":"2025-10-03T06:27:27.270432","MEAN_MOTION":13.12441537,"ECCENTRICITY":0.00017894,"INCLINATION":87.893,"RA_OF_ASC_NODE":41.7336,"ARG_OF_PERICENTER":96.3997,"MEAN_ANOMALY":263.7335,"EPHEMERIS_TYPE":0,"CLASSIFICATION_TYPE":"U","NORAD_CAT_ID":49086,"ELEMENT_SET_NO":999,"REV_AT_EPOCH":20148,"BSTAR":0.0011448266,"MEAN_MOTION_DOT":4.25e-6,"MEAN_MOTION_DDOT":0},{"OBJECT_NAME":"ONEWEB-0298","OBJECT_ID":"2021-075N","EPOCH":"2025-10-03T07:12:04.248288","MEAN_MOTION":13.17648928,"ECCENTRICITY":0.00016865,"INCLINATION":87.908,"RA_OF_ASC_NODE":56.9614,"ARG_OF_PERICENTER":93.4295,"MEAN_ANOMALY":266.7029,"EPHEMERIS_TYPE":0,"CLASSIFICATION_TYPE":"U","NORAD_CAT_ID":49087,"ELEMENT_SET_NO":999,"REV_AT_EPOCH":19979,"BSTAR":0.00012064789,"MEAN_MOTION_DOT":6.0e-7,"MEAN_MOTION_DDOT":0},{"OBJECT_NAME":"ONEWEB-0299","OBJECT_ID":"2021-075P","EPOCH":"2025-10-03T07:14:17.051136","MEAN_MOTION":13.17652627,"ECCENTRICITY":0.00018412,"INCLINATION":87.9083,"RA_OF_ASC_NODE":56.9184,"ARG_OF_PERICENTER":92.3092,"MEAN_ANOMALY":267.825,"EPHEMERIS_TYPE":0,"CLASSIFICATION_TYPE":"U","NORAD_CAT_ID":49088,"ELEMENT_SET_NO":999,"REV_AT_EPOCH":19977,"BSTAR":0.00019363107,"MEAN_MOTION_DOT":8.8e-7,"MEAN_MOTION_DDOT":0},{"OBJECT_NAME":"ONEWEB-0300","OBJECT_ID":"2021-075Q","EPOCH":"2025-10-02T21:06:51.967296","MEAN_MOTION":13.12440775,"ECCENTRICITY":0.00014864,"INCLINATION":87.8937,"RA_OF_ASC_NODE":41.7654,"ARG_OF_PERICENTER":92.2981,"MEAN_ANOMALY":267.8317,"EPHEMERIS_TYPE":0,"CLASSIFICATION_TYPE":"U","NORAD_CAT_ID":49089,"ELEMENT_SET_NO":999,"REV_AT_EPOCH":20145,"BSTAR":0.0012583325,"MEAN_MOTION_DOT":4.65e-6,"MEAN_MOTION_DDOT":0},{"OBJECT_NAME":"ONEWEB-0301","OBJECT_ID":"2021-075R","EPOCH":"2025-10-03T07:42:11.741472","MEAN_MOTION":13.12444264,"ECCENTRICITY":0.00013417,"INCLINATION":87.8932,"RA_OF_ASC_NODE":41.6815,"ARG_OF_PERICENTER":92.0207,"MEAN_ANOMALY":268.1075,"EPHEMERIS_TYPE":0,"CLASSIFICATION_TYPE":"U","NORAD_CAT_ID":49090,"ELEMENT_SET_NO":999,"REV_AT_EPOCH":20087,"BSTAR":-3.7132974e-5,"MEAN_MOTION_DOT":-1.0e-8,"MEAN_MOTION_DDOT":0},{"OBJECT_NAME":"ONEWEB-0302","OBJECT_ID":"2021-075S","EPOCH":"2025-10-03T07:23:30.249600","MEAN_MOTION":13.12442821,"ECCENTRICITY":0.00020172,"INCLINATION":87.8937,"RA_OF_ASC_NODE":41.6911,"ARG_OF_PERICENTER":104.4659,"MEAN_ANOMALY":255.6693,"EPHEMERIS_TYPE":0,"CLASSIFICATION_TYPE":"U","NORAD_CAT_ID":49091,"ELEMENT_SET_NO":999,"REV_AT_EPOCH":20085,"BSTAR":-0.00098351293,"MEAN_MOTION_DOT":-3.41e-6,"MEAN_MOTION_DDOT":0},{"OBJECT_NAME":"ONEWEB-0304","OBJECT_ID":"2021-075T","EPOCH":"2025-10-03T04:48:30.498336","MEAN_MOTION":13.17649932,"ECCENTRICITY":0.00017719,"INCLINATION":87.9082,"RA_OF_ASC_NODE":56.9693,"ARG_OF_PERICENTER":98.2846,"MEAN_ANOMALY":261.8486,"EPHEMERIS_TYPE":0,"CLASSIFICATION_TYPE":"U","NORAD_CAT_ID":49092,"ELEMENT_SET_NO":999,"REV_AT_EPOCH":19973,"BSTAR":-0.0005860825,"MEAN_MOTION_DOT":-2.15e-6,"MEAN_MOTION_DDOT":0},{"OBJECT_NAME":"ONEWEB-0305","OBJECT_ID":"2021-075U","EPOCH":"2025-10-02T21:21:24.232320","MEAN_MOTION":13.17648632,"ECCENTRICITY":0.0002079,"INCLINATION":87.9083,"RA_OF_ASC_NODE":57.008,"ARG_OF_PERICENTER":88.9958,"MEAN_ANOMALY":271.1412,"EPHEMERIS_TYPE":0,"CLASSIFICATION_TYPE":"U","NORAD_CAT_ID":49093,"ELEMENT_SET_NO":999,"REV_AT_EPOCH":19972,"BSTAR":-0.0001554196,"MEAN_MOTION_DOT":-4.7e-7,"MEAN_MOTION_DDOT":0},{"OBJECT_NAME":"ONEWEB-0308","OBJECT_ID":"2021-075V","EPOCH":"2025-10-03T07:14:09.816864","MEAN_MOTION":13.12443331,"ECCENTRICITY":0.00017183,"INCLINATION":87.894,"RA_OF_ASC_NODE":41.6841,"ARG_OF_PERICENTER":99.5847,"MEAN_ANOMALY":260.5476,"EPHEMERIS_TYPE":0,"CLASSIFICATION_TYPE":"U","NORAD_CAT_ID":49094,"ELEMENT_SET_NO":999,"REV_AT_EPOCH":20086,"BSTAR":-0.00093178896,"MEAN_MOTION_DOT":-3.22e-6,"MEAN_MOTION_DDOT":0},{"OBJECT_NAME":"ONEWEB-0309","OBJECT_ID":"2021-075W","EPOCH":"2025-10-02T21:26:13.809696","MEAN_MOTION":13.17650619,"ECCENTRICITY":0.00020195,"INCLINATION":87.908,"RA_OF_ASC_NODE":57.024,"ARG_OF_PERICENTER":105.0921,"MEAN_ANOMALY":255.0434,"EPHEMERIS_TYPE":0,"CLASSIFICATION_TYPE":"U","NORAD_CAT_ID":49095,"ELEMENT_SET_NO":999,"REV_AT_EPOCH":19969,"BSTAR":3.2246684e-5,"MEAN_MOTION_DOT":2.5e-7,"MEAN_MOTION_DDOT":0},{"OBJECT_NAME":"ONEWEB-0310","OBJECT_ID":"2021-075X","EPOCH":"2025-10-03T07:35:11.311296","MEAN_MOTION":13.12443604,"ECCENTRICITY":0.00018339,"INCLINATION":87.8929,"RA_OF_ASC_NODE":41.7244,"ARG_OF_PERICENTER":101.1844,"MEAN_ANOMALY":258.9491,"EPHEMERIS_TYPE":0,"CLASSIFICATION_TYPE":"U","NORAD_CAT_ID":49096,"ELEMENT_SET_NO":999,"REV_AT_EPOCH":20149,"BSTAR":-0.00044972504,"MEAN_MOTION_DOT":-1.49e-6,"MEAN_MOTION_DDOT":0},{"OBJECT_NAME":"ONEWEB-0311","OBJECT_ID":"2021-075Y","EPOCH":"2025-10-03T04:53:20.972544","MEAN_MOTION":13.17646598,"ECCENTRICITY":0.00019526,"INCLINATION":87.9078,"RA_OF_ASC_NODE":56.9593,"ARG_OF_PERICENTER":86.7514,"MEAN_ANOMALY":273.3841,"EPHEMERIS_TYPE":0,"CLASSIFICATION_TYPE":"U","NORAD_CAT_ID":49097,"ELEMENT_SET_NO":999,"REV_AT_EPOCH":19978,"BSTAR":-0.00012424537,"MEAN_MOTION_DOT":-3.5e-7,"MEAN_MOTION_DDOT":0},{"OBJECT_NAME":"ONEWEB-0312","OBJECT_ID":"2021-075Z","EPOCH":"2025-10-03T07:04:33.336192","MEAN_MOTION":13.17650841,"ECCENTRICITY":0.00020859,"INCLINATION":87.9073,"RA_OF_ASC_NODE":56.9719,"ARG_OF_PERICENTER":95.0143,"MEAN_ANOMALY":265.1227,"EPHEMERIS_TYPE":0,"CLASSIFICATION_TYPE":"U","NORAD_CAT_ID":49098,"ELEMENT_SET_NO":999,"REV_AT_EPOCH":19977,"BSTAR":0.00016773774,"MEAN_MOTION_DOT":7.8e-7,"MEAN_MOTION_DDOT":0},{"OBJECT_NAME":"ONEWEB-0313","OBJECT_ID":"2021-075AA","EPOCH":"2025-10-03T07:11:38.640192","MEAN_MOTION":13.17649464,"ECCENTRICITY":0.00018244,"INCLINATION":87.9068,"RA_OF_ASC_NODE":56.9812,"ARG_OF_PERICENTER":94.2972,"MEAN_ANOMALY":265.8368,"EPHEMERIS_TYPE":0,"CLASSIFICATION_TYPE":"U","NORAD_CAT_ID":49099,"ELEMENT_SET_NO":999,"REV_AT_EPOCH":19976,"BSTAR":-0.00082949173,"MEAN_MOTION_DOT":-3.09e-6,"MEAN_MOTION_DDOT":0},{"OBJECT_NAME":"ONEWEB-0314","OBJECT_ID":"2021-075AB","EPOCH":"2025-10-02T23:05:51.906912","MEAN_MOTION":13.17651928,"ECCENTRICITY":0.00021614,"INCLINATION":87.9086,"RA_OF_ASC_NODE":56.9905,"ARG_OF_PERICENTER":93.5321,"MEAN_ANOMALY":266.6058,"EPHEMERIS_TYPE":0,"CLASSIFICATION_TYPE":"U","NORAD_CAT_ID":49100,"ELEMENT_SET_NO":999,"REV_AT_EPOCH":19969,"BSTAR":-3.4136058e-5,"MEAN_MOTION_DOT":0,"MEAN_MOTION_DDOT":0},{"OBJECT_NAME":"ONEWEB-0315","OBJECT_ID":"2021-075AC","EPOCH":"2025-10-03T06:57:48.934944","MEAN_MOTION":13.12441188,"ECCENTRICITY":0.00018109,"INCLINATION":87.8936,"RA_OF_ASC_NODE":41.6755,"ARG_OF_PERICENTER":86.2023,"MEAN_ANOMALY":273.9313,"EPHEMERIS_TYPE":0,"CLASSIFICATION_TYPE":"U","NORAD_CAT_ID":49101,"ELEMENT_SET_NO":999,"REV_AT_EPOCH":20147,"BSTAR":-0.00060214428,"MEAN_MOTION_DOT":-2.04e-6,"MEAN_MOTION_DDOT":0},{"OBJECT_NAME":"ONEWEB-0316","OBJECT_ID":"2021-075AD","EPOCH":"2025-10-03T05:47:04.606656","MEAN_MOTION":13.1868768,"ECCENTRICITY":0.00018005,"INCLINATION":87.9218,"RA_OF_ASC_NODE":26.4911,"ARG_OF_PERICENTER":96.2327,"MEAN_ANOMALY":263.9011,"EPHEMERIS_TYPE":0,"CLASSIFICATION_TYPE":"U","NORAD_CAT_ID":49102,"ELEMENT_SET_NO":999,"REV_AT_EPOCH":20334,"BSTAR":0.00019666791,"MEAN_MOTION_DOT":9.0e-7,"MEAN_MOTION_DDOT":0}]
